MEAN_MOTION;ECCENTRICITY;INCLINATION;RA_OF_ASC_NODE;ARG_OF_PERICENTER;MEAN_ANOMALY;BSTAR;MEAN_MOTION_DOT;MEAN_MOTION_DDOT;TYPE
14.32842434;8.06E-5;44.998;149.2996;263.1681;250.6814;8.1583E-5;8.4E-7;0;Orbcomm
14.32843115;8.42E-5;44.9979;144.3992;264.7392;230.2443;8.9692E-5;1.06E-6;0;Orbcomm
14.32843777;8.69E-5;44.9979;139.8086;266.5366;229.4853;9.5683E-5;1.23E-6;0;Orbcomm
14.32844092;8.86E-5;44.9979;137.2617;267.1982;145.4293;9.5619E-5;1.23E-6;0;Orbcomm
14.32844351;8.92E-5;44.9979;135.5404;267.3668;235.4122;9.83E-5;1.3E-6;0;Orbcomm
14.32844883;9.14E-5;44.9979;130.9526;268.0405;232.4274;9.7616E-5;1.28E-6;0;Orbcomm
14.32845364;9.36E-5;44.998;126.3629;269.5431;231.0062;9.6818E-5;1.26E-6;0;Orbcomm
14.32845643;9.54E-5;44.998;123.5172;270.5995;114.7966;9.6592E-5;1.25E-6;0;Orbcomm
14.32845833;9.52E-5;44.998;121.4601;271.1196;213.2136;9.6156E-5;1.24E-6;0;Orbcomm
14.32846126;9.65E-5;44.998;118.5785;271.724;136.8158;9.692E-5;1.26E-6;0;Orbcomm
14.3284625;9.63E-5;44.998;116.8771;272.1565;204.6725;9.5888E-5;1.23E-6;0;Orbcomm
14.32846715;9.77E-5;44.998;110.3606;273.8411;158.5326;8.569E-5;9.5E-7;0;Orbcomm
14.3284694;9.75E-5;44.998;107.3523;274.571;221.1613;8.1566E-5;8.4E-7;0;Orbcomm
14.3284736;9.73E-5;44.998;102.7629;276.0237;219.2554;7.8047E-5;7.4E-7;0;Orbcomm
14.32847644;9.75E-5;44.998;99.5182;276.9445;181.1967;7.3922E-5;6.3E-7;0;Orbcomm
14.32847941;9.75E-5;44.9981;96.264;278.1229;153.3571;7.1584E-5;5.7E-7;0;Orbcomm
14.32848308;9.66E-5;44.9981;93.2398;279.558;232.7254;7.5636E-5;6.8E-7;0;Orbcomm
14.32848493;9.69E-5;44.9982;91.3326;279.5668;166.7822;7.6314E-5;7.0E-7;0;Orbcomm
14.32848775;9.56E-5;44.9982;88.6471;280.921;234.4005;7.8807E-5;7.6E-7;0;Orbcomm
14.32848911;9.58E-5;44.9983;87.0871;281.572;146.6851;7.9356E-5;7.8E-7;0;Orbcomm
14.32848927;9.56E-5;44.9983;86.7445;281.7365;162.761;7.9326E-5;7.8E-7;0;Orbcomm
14.32849117;9.43E-5;44.9983;84.3838;282.0209;234.6533;7.839E-5;7.5E-7;0;Orbcomm
14.32849306;9.37E-5;44.9984;81.8572;283.0915;127.9246;7.9025E-5;7.7E-7;0;Orbcomm
14.32849611;9.12E-5;44.9985;77.2875;285.0891;103.9772;7.7739E-5;7.3E-7;0;Orbcomm
14.32849706;9.0E-5;44.9986;75.8932;285.335;194.8153;7.6759E-5;7.1E-7;0;Orbcomm
14.32850013;8.88E-5;44.9987;72.638;285.6553;168.9417;8.0388E-5;8.1E-7;0;Orbcomm
14.32850217;8.61E-5;44.9987;70.3057;287.243;208.6269;8.0489E-5;8.1E-7;0;Orbcomm
14.32850493;8.48E-5;44.9988;67.7605;287.3498;123.3665;8.1964E-5;8.5E-7;0;Orbcomm
14.32850767;8.28E-5;44.9989;65.3732;288.2854;223.9336;8.2765E-5;8.7E-7;0;Orbcomm
14.32850767;8.28E-5;44.9989;65.3732;288.2854;223.9336;8.2765E-5;8.7E-7;0;Orbcomm
14.32850974;8.14E-5;44.9989;63.1668;288.2713;126.8091;8.1177E-5;8.3E-7;0;Orbcomm
14.32851192;7.89E-5;44.999;61.0981;289.0241;237.7763;8.0211E-5;8.0E-7;0;Orbcomm
14.32851582;7.6E-5;44.9991;57.1968;289.0698;201.8211;7.711E-5;7.2E-7;0;Orbcomm
14.32851989;7.32E-5;44.9992;53.6659;288.9171;119.2075;7.7724E-5;7.3E-7;0;Orbcomm
14.3285219;7.1E-5;44.9992;51.924;289.4328;231.5759;7.9251E-5;7.8E-7;0;Orbcomm
14.32852537;6.9E-5;44.9993;49.0645;289.0684;131.9309;8.2083E-5;8.5E-7;0;Orbcomm
14.32852794;6.68E-5;44.9994;47.0216;289.6725;214.6536;8.5713E-5;9.5E-7;0;Orbcomm
14.32853081;6.54E-5;44.9994;44.4721;289.249;134.7278;8.8725E-5;1.04E-6;0;Orbcomm
14.32853735;6.13E-5;44.9996;39.8845;288.1269;133.4989;0.00010168;1.39E-6;0;Orbcomm
14.32854349;5.68E-5;44.9997;34.9464;285.4635;158.7022;0.00010656;1.53E-6;0;Orbcomm
14.32854487;5.53E-5;44.9997;33.92;285.2722;205.9706;0.00010943;1.61E-6;0;Orbcomm
14.32854984;5.19E-5;44.9998;30.3331;283.2858;186.8543;0.00011205;1.68E-6;0;Orbcomm
14.32855441;4.9E-5;44.9999;27.0995;281.9393;139.1945;0.00011279;1.7E-6;0;Orbcomm
14.32855607;4.8E-5;44.9999;25.7483;280.1918;184.6351;0.00011139;1.66E-6;0;Orbcomm
14.32856169;4.55E-5;45;21.8794;276.8508;116.6322;0.00011168;1.67E-6;0;Orbcomm
14.32856254;4.48E-5;45;21.152;275.5884;196.6593;0.00010986;1.62E-6;0;Orbcomm
14.32856773;4.21E-5;45;16.5639;269.6443;200.9698;0.00010289;1.43E-6;0;Orbcomm
14.32857397;4.06E-5;45;11.665;261.9827;188.2598;0.00010103;1.38E-6;0;Orbcomm
14.32857447;4.1E-5;45;11.3217;261.5617;205.6413;0.00010151;1.39E-6;0;Orbcomm
14.32857933;4.07E-5;44.9999;7.0764;253.9;195.1612;0.00010016;1.35E-6;0;Orbcomm
14.3285815;3.96E-5;44.9999;5.7322;252.3974;232.8612;0.00010388;1.45E-6;0;Orbcomm
14.32858561;4.08E-5;44.9999;2.1448;245.6723;218.8801;0.00010466;1.48E-6;0;Orbcomm
14.32859069;4.18E-5;44.9998;357.8729;235.9054;239.6736;0.00010604;1.51E-6;0;Orbcomm
14.32859654;4.53E-5;44.9997;353.0113;229.9599;184.3284;0.00010724;1.55E-6;0;Orbcomm
14.32860143;4.93E-5;44.9996;348.7011;224.9501;242.3878;0.00010455;1.47E-6;0;Orbcomm
14.32860314;5.03E-5;44.9996;347.3476;223.4092;290.3063;0.00010447;1.47E-6;0;Orbcomm
14.32860709;5.6E-5;44.9995;343.4911;220.6838;207.7959;9.7747E-5;1.29E-6;0;Orbcomm
14.32860836;5.7E-5;44.9995;342.4453;219.4608;277.4758;9.713E-5;1.27E-6;0;Orbcomm
14.32861191;6.27E-5;44.9995;338.9035;217.8247;208.3344;9.0899E-5;1.1E-6;0;Orbcomm
14.32861593;6.73E-5;44.9994;334.2761;219.7806;247.9802;8.4316E-5;9.2E-7;0;Orbcomm
14.32861595;6.84E-5;44.9994;333.9262;219.265;272.741;8.296E-5;8.8E-7;0;Orbcomm
14.32861895;7.44E-5;44.9993;329.3415;219.8136;266.6069;7.5908E-5;6.8E-7;0;Orbcomm
14.3286217;7.89E-5;44.9992;326.1082;220.3412;216.5511;7.7653E-5;7.3E-7;0;Orbcomm
14.32862241;8.02E-5;44.9992;325.4117;219.6472;262.0703;7.7525E-5;7.3E-7;0;Orbcomm
14.32862709;8.84E-5;44.999;319.8619;219.5027;236.4254;8.1165E-5;8.3E-7;0;Orbcomm
14.32862709;8.84E-5;44.999;319.8619;219.5027;236.4254;8.1165E-5;8.3E-7;0;Orbcomm
14.32863134;9.78E-5;44.9989;314.5792;219.4193;277.2961;8.1072E-5;8.3E-7;0;Orbcomm
14.32863406;0.0001058;44.9988;310.6866;219.9486;230.9975;7.7313E-5;7.2E-7;0;Orbcomm
14.32863781;0.0001135;44.9987;306.1023;221.2775;223.5295;7.3594E-5;6.2E-7;0;Orbcomm
14.32863812;0.0001136;44.9987;305.7525;221.5331;247.3871;7.3578E-5;6.2E-7;0;Orbcomm
14.3286424;0.0001233;44.9987;301.1647;222.6207;243.9839;7.0966E-5;5.5E-7;0;Orbcomm
14.32864275;0.000124;44.9987;300.8152;222.6573;267.7028;7.0815E-5;5.4E-7;0;Orbcomm
14.32864645;0.0001302;44.9987;296.5771;224.5492;239.6811;6.8803E-5;4.9E-7;0;Orbcomm
14.32864928;0.000136;44.9986;293.6794;225.8107;180.2081;6.9915E-5;5.2E-7;0;Orbcomm
14.32864982;0.0001363;44.9987;293.2946;225.8796;242.7193;7.0155E-5;5.3E-7;0;Orbcomm
14.32865518;0.0001441;44.9986;287.3648;228.9328;271.0685;7.4208E-5;6.4E-7;0;Orbcomm
14.32865801;0.0001481;44.9986;284.1714;230.8431;175.7806;7.6852E-5;7.1E-7;0;Orbcomm
14.32866047;0.000155;44.9985;279.5298;233.0136;230.5023;7.2296E-5;5.9E-7;0;Orbcomm
14.32866072;0.0001556;44.9985;279.1913;233.0916;242.1209;7.1835E-5;5.7E-7;0;Orbcomm
14.32866125;0.0001571;44.9985;278.5304;233.2869;247.6918;7.1845E-5;5.7E-7;0;Orbcomm
14.32866404;0.0001623;44.9984;274.6061;235.3311;234.7873;7.0139E-5;5.3E-7;0;Orbcomm
14.32866439;0.0001634;44.9984;274.3296;235.3174;178.4658;7.0328E-5;5.3E-7;0;Orbcomm
14.32866559;0.0001648;44.9984;272.9439;236.0459;259.3894;7.1028E-5;5.5E-7;0;Orbcomm
14.32866908;0.0001712;44.9983;268.3529;238.2724;258.3408;6.7566E-5;4.6E-7;0;Orbcomm
14.3286729;0.0001778;44.9983;263.7626;240.7174;256.4083;6.5578E-5;4.0E-7;0;Orbcomm
14.32867444;0.0001802;44.9984;262.1955;241.7403;176.1486;6.5629E-5;4.0E-7;0;Orbcomm
14.32867656;0.0001849;44.9983;259.18;243.1082;246.0373;6.378E-5;3.5E-7;0;Orbcomm
14.32867896;0.0001889;44.9983;255.9065;245.0348;238.5472;6.2311E-5;3.1E-7;0;Orbcomm
14.32868249;0.0001947;44.9984;250.3544;248.2372;212.0649;6.1959E-5;3.0E-7;0;Orbcomm
14.32868472;0.0002002;44.9984;245.4162;251.0956;231.7611;5.8374E-5;2.0E-7;0;Orbcomm
14.32868645;0.0002037;44.9984;241.5248;253.4095;182.6587;5.5971E-5;1.4E-7;0;Orbcomm
14.32868682;0.0002041;44.9984;240.8335;253.8749;221.3615;5.6051E-5;1.4E-7;0;Orbcomm
14.32868988;0.0002077;44.9983;237.2825;255.9543;158.596;5.921E-5;2.3E-7;0;Orbcomm
14.32869023;0.0002079;44.9983;236.9373;256.2035;177.4104;5.9973E-5;2.5E-7;0;Orbcomm
14.32869064;0.0002078;44.9983;235.8973;256.8762;238.8356;5.7688E-5;1.8E-7;0;Orbcomm
14.32869423;0.0002123;44.9982;232.3585;259.0641;162.5521;5.973E-5;2.4E-7;0;Orbcomm
14.32869538;0.0002118;44.9981;231.3076;259.7127;235.9137;6.0931E-5;2.7E-7;0;Orbcomm
14.3287035;0.0002152;44.998;226.7164;262.5334;234.6664;8.1796E-5;8.5E-7;0;Orbcomm
14.32870697;0.0002184;44.9979;222.1333;265.215;224.6385;7.3376E-5;6.2E-7;0;Orbcomm
14.32871222;0.0002215;44.9978;217.5454;267.995;219.8383;7.7146E-5;7.2E-7;0;Orbcomm
14.32871691;0.0002244;44.9977;212.9285;270.9301;246.4885;8.0081E-5;8.0E-7;0;Orbcomm
14.32871936;0.0002263;44.9977;210.0825;272.6495;129.8254;8.0308E-5;8.1E-7;0;Orbcomm
14.3287208;0.0002263;44.9976;208.3694;273.7496;209.863;8.1301E-5;8.3E-7;0;Orbcomm
14.32872364;0.0002278;44.9976;204.4777;276.1173;160.8264;7.9941E-5;8.0E-7;0;Orbcomm
14.32872457;0.0002279;44.9976;203.4368;276.9238;223.0517;8.0367E-5;8.1E-7;0;Orbcomm
14.32872755;0.0002283;44.9975;199.5097;279.3078;212.8727;7.8999E-5;7.7E-7;0;Orbcomm
14.32872772;0.0002285;44.9975;199.1982;279.589;194.668;7.8375E-5;7.5E-7;0;Orbcomm
14.32872799;0.0002285;44.9975;198.8503;279.84;216.5101;7.7954E-5;7.4E-7;0;Orbcomm
14.32873086;0.000229;44.9974;194.2622;282.8965;211.5557;6.9621E-5;5.1E-7;0;Orbcomm
14.32873392;0.000229;44.9974;190.0232;285.7261;183.4911;6.2796E-5;3.2E-7;0;Orbcomm
14.32873424;0.0002289;44.9973;189.6709;285.9766;210.1397;6.2362E-5;3.1E-7;0;Orbcomm
14.32873638;0.000229;44.9973;186.7993;287.7444;121.5287;5.7712E-5;1.8E-7;0;Orbcomm
14.32873709;0.0002283;44.9972;185.0857;289.1251;201.8358;5.3771E-5;8.0E-8;0;Orbcomm
14.32874005;0.0002275;44.9971;180.4655;292.3311;231.8712;4.8894E-5;-6.0E-8;0;Orbcomm
14.32874286;0.0002263;44.9971;176.2175;295.2931;213.5192;4.8834E-5;-6.0E-8;0;Orbcomm
14.32874515;0.0002251;44.997;172.6675;297.6755;149.1285;5.0472E-5;-2.0E-8;0;Orbcomm
14.32874643;0.0002244;44.997;171.3219;298.6784;185.7104;5.4326E-5;9.0E-8;0;Orbcomm
14.32874884;0.0002216;44.9969;166.7057;301.8945;211.2715;5.7337E-5;1.7E-7;0;Orbcomm
14.32874887;0.0002217;44.9969;166.3887;302.1832;199.0704;5.6817E-5;1.6E-7;0;Orbcomm
14.32875143;0.0002181;44.9969;161.8011;305.6263;193.0039;5.9375E-5;2.3E-7;0;Orbcomm
